SCD 1                   
1 22490U 93009B   26176.23155106  .00000376  00000+0  51700-4 0  9995
2 22490  24.9679 157.9050 0041736 222.8635 160.0190 14.46121376762289
TECHSAT 1B (GO-32)      
1 25397U 98043D   26176.56378874  .00000060  00000+0  46075-4 0  9991
2 25397  99.0071 169.5339 0001468 146.9884 213.1386 14.24429889452522
SCD 2                   
1 25504U 98060A   26176.58290828  .00000375  00000+0  53739-4 0  9998
2 25504  24.9966  20.3825 0016639 211.3140 181.4254 14.45528739461544
DLR-TUBSAT              
1 25757U 99029B   26176.56025406  .00000091  00000+0  34237-4 0  9997
2 25757  98.6696 172.3399 0013557 329.0322  31.0071 14.52428713434468
TERRA                   
1 25994U 99068A   26176.59660736  .00000366  00000+0  83542-4 0  9995
2 25994  97.9452 225.8094 0002245 164.8951 355.0735 14.61109245410831
MAROC-TUBSAT            
1 27004U 01056D   26176.47077963 -.00000015  00000+0  35394-4 0  9994
2 27004  99.8086 353.4865 0020527 120.7124 294.6321 13.70262749227326
AQUA                    
1 27424U 02022A   26176.54999400  .00000728  00000+0  15452-3 0  9993
2 27424  98.4280 146.0000 0000813  63.3681  51.6160 14.62169698284490
SHIYAN-1 (SY-1)         
1 28220U 04012A   26176.46871987  .00016633  00000+0  50828-3 0  9997
2 28220  97.8693 255.0758 0004853   4.0997 356.0284 15.33954751212364
AURA                    
1 28376U 04026A   26176.47652172  .00000723  00000+0  15602-3 0  9992
2 28376  98.3420 132.9985 0001169  81.3723 278.7610 14.61340510167428
IRS-P5 (CARTOSAT-1)     
1 28649U 05017A   26176.53392027  .00001423  00000+0  14898-3 0  9997
2 28649  97.5306 199.2198 0002390  69.7732 290.3744 14.91069461145064
SINAH 1                 
1 28893U 05043D   26176.52821526  .00000309  00000+0  68115-4 0  9991
2 28893  98.2869 310.8996 0013239 248.1164 111.8631 14.64162777101743
RESURS-DK 1             
1 29228U 06021A   26176.56259956  .00002331  00000+0  13686-3 0  9996
2 29228  69.9338 317.8730 0006755 287.9158  72.1271 15.13248953103842
ARIRANG-2 (KOMPSAT-2)   
1 29268U 06031A   26176.63284054  .00000202  00000+0  46435-4 0  9990
2 29268  97.8312   0.6710 0015674  50.2859  39.3461 14.64664225 62717
LAPAN-TUBSAT            
1 29709U 07001A   26176.60425216 -.00000001  00000+0  64737-5 0  9996
2 29709  98.1345 176.0179 0012599 152.4081 207.7805 14.85954997 52408
HAIYANG-1B              
1 31113U 07010A   26176.53522726  .00000093  00000+0  51207-4 0  9991
2 31113  98.3498 158.0568 0013589 171.2621 188.8802 14.31028880  1833
COSMO-SKYMED 1          
1 31598U 07023A   26176.55639000  .00003247  00000+0  28635-3 0  9990
2 31598  97.8861   8.4825 0001835  91.8658 268.2774 14.97143148 31044
TERRASAR-X              
1 31698U 07026A   26175.56897117  .00001644  00000+0  81449-4 0  9991
2 31698  97.4447 183.1695 0001626  88.3572 271.7849 15.19150427 54344
WORLDVIEW-1 (WV-1)      
1 32060U 07041A   26176.43214296  .00006799  00000+0  28068-3 0  9993
2 32060  97.3879 296.0578 0001468 351.5185   8.6028 15.24349809 44131
YAOGAN-3                
1 32289U 07055A   26176.58443233  .00002427  00000+0  25227-3 0  9990
2 32289  97.8160 206.3798 0001976  82.5881 277.5562 14.90813197  7124
COSMO-SKYMED 2          
1 32376U 07059A   26176.59985451  .00000506  00000+0  70130-4 0  9995
2 32376  97.8888   0.0757 0001358  88.1063 272.0306 14.82151870  3250
RADARSAT-2              
1 32382U 07061A   26176.57425808  .00000104  00000+0  57378-4 0  9991
2 32382  98.5781 183.3869 0001299  83.6229 276.5102 14.29983403967151
CARTOSAT-2A             
1 32783U 08021A   26176.56959300  .00001202  00000+0  16824-3 0  9991
2 32783  97.7634 224.9924 0013369  84.7449 275.5289 14.79251499980041
HUANJING 1A (HJ-1A)     
1 33320U 08041A   26176.59472918  .00001553  00000+0  19199-3 0  9996
2 33320  97.6684 162.1077 0020531 108.8503 251.4940 14.84004866959653
HUANJING 1B (HJ-1B)     
1 33321U 08041B   26176.63509149  .00000319  00000+0  44764-4 0  9995
2 33321  97.6521 165.2929 0036760 153.2875 207.0244 14.83327583959669
GEOEYE 1                
1 33331U 08042A   26176.48606860  .00000401  00000+0  84189-4 0  9995
2 33331  98.1234 250.3122 0005058  49.1450 311.0190 14.64732488951364
THEOS                   
1 33396U 08049A   26176.63492125  .00000438  00000+0  22509-3 0  9994
2 33396  98.5571 233.6446 0001178  81.2334 278.8976 14.20135600919162
COSMO-SKYMED 3          
1 33412U 08054A   26176.57592247  .00004014  00000+0  27192-3 0  9995
2 33412  97.8276  35.2859 0014352 235.0875 124.9003 15.06995490958202
YAOGAN-4                
1 33446U 08061A   26176.53245809  .00000993  00000+0  12800-3 0  9997
2 33446  97.9307 109.9811 0015403  47.7570 312.4948 14.83215178946908
GOSAT (IBUKI)           
1 33492U 09002A   26176.25203289 -.00000082  00000+0 -60154-5 0  9997
2 33492  98.0900 287.2323 0001316  83.5570 276.5784 14.67538240932648
DEIMOS-1                
1 35681U 09041A   26176.59690030  .00000497  00000+0  80491-4 0  9996
2 35681  97.7411 333.4604 0002156 120.3853 239.7570 14.75244689908126
